start=new Date('2021-12-01T00:00:00.000Z').valueOf();
sats=[{"ECCENTRICITY":"0.00014610","RCS_SIZE":"LARGE","REF_FRAME":"TEME","OBJECT_TYPE":"PAYLOAD","COUNTRY_CODE":"US","DECAY_DATE":null,"CENTER_NAME":"EARTH","TIME_SYSTEM":"UTC","FILE":"3228256","MEAN_MOTION":"15.08263261","MEAN_MOTION_DOT":"0.00006235","ELEMENT_SET_NO":"999","LAUNCH_DATE":"2019-11-11","APOAPSIS":"542.520","RA_OF_ASC_NODE":"5.9437","SEMIMAJOR_AXIS":"6919.644","MEAN_MOTION_DDOT":"0.0000000000000","TLE_LINE2":"2 44739  52.9996   5.9437 0001461  79.3628 280.7525 15.08263261113372","CLASSIFICATION_TYPE":"U","OBJECT_ID":"2019-074AC","GP_ID":"190814208","BSTAR":"0.00041587000000","SITE":"AFETR","INCLINATION":"52.9996","PERIOD":"95.474","MEAN_ANOMALY":"280.7525","EPOCH":"2021-11-30T19:51:38.214432","OBJECT_NAME":"STARLINK-1034","EPHEMERIS_TYPE":"0","ARG_OF_PERICENTER":"79.3628","NORAD_CAT_ID":"44739","TLE_LINE1":"1 44739U 19074AC  21334.82752563  .00006235  00000-0  41587-3 0  9993","PERIAPSIS":"540.498","MEAN_ELEMENT_THEORY":"SGP4","REV_AT_EPOCH":"11337"},{"MEAN_MOTION":"15.06393945","MEAN_MOTION_DOT":"0.00001052","ELEMENT_SET_NO":"999","ECCENTRICITY":"0.00013890","CENTER_NAME":"EARTH","DECAY_DATE":null,"COUNTRY_CODE":"US","RCS_SIZE":"LARGE","REF_FRAME":"TEME","OBJECT_TYPE":"PAYLOAD","FILE":"3228256","TIME_SYSTEM":"UTC","INCLINATION":"53.0558","BSTAR":"0.00008953300000","GP_ID":"190815459","SITE":"AFETR","OBJECT_NAME":"STARLINK-1035","EPOCH":"2021-11-30T19:42:11.523744","MEAN_ANOMALY":"282.8890","PERIOD":"95.593","TLE_LINE1":"1 44740U 19074AD  21334.82096671  .00001052  00000-0  89533-4 0  9992","NORAD_CAT_ID":"44740","EPHEMERIS_TYPE":"0","ARG_OF_PERICENTER":"77.2254","REV_AT_EPOCH":"11336","MEAN_ELEMENT_THEORY":"SGP4","PERIAPSIS":"546.270","TLE_LINE2":"2 44740  53.0558   9.1399 0001389  77.2254 282.8890 15.06393945113362","MEAN_MOTION_DDOT":"0.0000000000000","RA_OF_ASC_NODE":"9.1399","SEMIMAJOR_AXIS":"6925.367","LAUNCH_DATE":"2019-11-11","APOAPSIS":"548.194","OBJECT_ID":"2019-074AD","CLASSIFICATION_TYPE":"U"},{"ECCENTRICITY":"0.00015210","RCS_SIZE":"LARGE","OBJECT_TYPE":"PAYLOAD","REF_FRAME":"TEME","CENTER_NAME":"EARTH","DECAY_DATE":null,"COUNTRY_CODE":"US","TIME_SYSTEM":"UTC","FILE":"3228256","MEAN_MOTION":"15.06402301","MEAN_MOTION_DOT":"0.00000854","ELEMENT_SET_NO":"999","TLE_LINE2":"2 44741  53.0550   9.0927 0001521  65.4899 294.6249 15.06402301113369","MEAN_MOTION_DDOT":"0.0000000000000","APOAPSIS":"548.260","LAUNCH_DATE":"2019-11-11","SEMIMAJOR_AXIS":"6925.342","RA_OF_ASC_NODE":"9.0927","OBJECT_ID":"2019-074AE","CLASSIFICATION_TYPE":"U","INCLINATION":"53.0550","BSTAR":"0.00007621100000","GP_ID":"190815710","SITE":"AFETR","EPOCH":"2021-11-30T19:58:06.288672","OBJECT_NAME":"STARLINK-1036","PERIOD":"95.592","MEAN_ANOMALY":"294.6249","NORAD_CAT_ID":"44741","TLE_LINE1":"1 44741U 19074AE  21334.83201723  .00000854  00000-0  76211-4 0  9998","ARG_OF_PERICENTER":"65.4899","EPHEMERIS_TYPE":"0","REV_AT_EPOCH":"11336","PERIAPSIS":"546.153","MEAN_ELEMENT_THEORY":"SGP4"},{"ELEMENT_SET_NO":"999","MEAN_MOTION_DOT":"0.00005737","MEAN_MOTION":"15.09369594","FILE":"3228256","TIME_SYSTEM":"UTC","DECAY_DATE":null,"COUNTRY_CODE":"US","CENTER_NAME":"EARTH","RCS_SIZE":"LARGE","REF_FRAME":"TEME","OBJECT_TYPE":"PAYLOAD","ECCENTRICITY":"0.00007220","MEAN_ELEMENT_THEORY":"SGP4","PERIAPSIS":"537.628","REV_AT_EPOCH":"11342","ARG_OF_PERICENTER":"116.8717","EPHEMERIS_TYPE":"0","TLE_LINE1":"1 44742U 19074AF  21334.77827400  .00005737  00000-0  37287-3 0  9992","NORAD_CAT_ID":"44742","MEAN_ANOMALY":"243.2346","PERIOD":"95.404","OBJECT_NAME":"STARLINK-1037","EPOCH":"2021-11-30T18:40:42.873600","SITE":"AFETR","GP_ID":"190814458","BSTAR":"0.00037287000000","INCLINATION":"52.9987","CLASSIFICATION_TYPE":"U","OBJECT_ID":"2019-074AF","RA_OF_ASC_NODE":"2.4060","SEMIMAJOR_AXIS":"6916.262","LAUNCH_DATE":"2019-11-11","APOAPSIS":"538.626","TLE_LINE2":"2 44742  52.9987   2.4060 0000722 116.8717 243.2346 15.09369594113423","MEAN_MOTION_DDOT":"0.0000000000000"},{"MEAN_MOTION":"15.06406181","ELEMENT_SET_NO":"999","MEAN_MOTION_DOT":"0.00000447","ECCENTRICITY":"0.00011880","FILE":"3228256","TIME_SYSTEM":"UTC","COUNTRY_CODE":"US","DECAY_DATE":null,"CENTER_NAME":"EARTH","RCS_SIZE":"LARGE","REF_FRAME":"TEME","OBJECT_TYPE":"PAYLOAD","MEAN_ANOMALY":"286.3468","PERIOD":"95.592","OBJECT_NAME":"STARLINK-1038","EPOCH":"2021-11-30T21:09:45.112896","GP_ID":"190814708","SITE":"AFETR","BSTAR":"0.00004889200000","INCLINATION":"53.0551","MEAN_ELEMENT_THEORY":"SGP4","PERIAPSIS":"546.372","REV_AT_EPOCH":"11318","ARG_OF_PERICENTER":"73.7652","EPHEMERIS_TYPE":"0","TLE_LINE1":"1 44743U 19074AG  21334.88177214  .00000447  00000-0  48892-4 0  9994","NORAD_CAT_ID":"44743","RA_OF_ASC_NODE":"28.8677","SEMIMAJOR_AXIS":"6925.330","LAUNCH_DATE":"2019-11-11","APOAPSIS":"548.017","MEAN_MOTION_DDOT":"0.0000000000000","TLE_LINE2":"2 44743  53.0551  28.8677 0001188  73.7652 286.3468 15.06406181113182","CLASSIFICATION_TYPE":"U","OBJECT_ID":"2019-074AG"},{"MEAN_MOTION":"15.06404513","ELEMENT_SET_NO":"999","MEAN_MOTION_DOT":"0.00001433","ECCENTRICITY":"0.00013030","FILE":"3228256","TIME_SYSTEM":"UTC","DECAY_DATE":null,"COUNTRY_CODE":"US","CENTER_NAME":"EARTH","OBJECT_TYPE":"PAYLOAD","RCS_SIZE":"LARGE","REF_FRAME":"TEME","OBJECT_NAME":"STARLINK-1039","EPOCH":"2021-11-30T21:25:40.957824","MEAN_ANOMALY":"289.2746","PERIOD":"95.592","INCLINATION":"53.0549","GP_ID":"190814960","BSTAR":"0.00011506000000","SITE":"AFETR","REV_AT_EPOCH":"11309","MEAN_ELEMENT_THEORY":"SGP4","PERIAPSIS":"546.297","TLE_LINE1":"1 44744U 19074AH  21334.89283516  .00001433  00000-0  11506-3 0  9996","NORAD_CAT_ID":"44744","EPHEMERIS_TYPE":"0","ARG_OF_PERICENTER":"70.8384","MEAN_MOTION_DDOT":"0.0000000000000","TLE_LINE2":"2 44744  53.0549  28.8209 0001303  70.8384 289.2746 15.06404513113098","SEMIMAJOR_AXIS":"6925.335","RA_OF_ASC_NODE":"28.8209","LAUNCH_DATE":"2019-11-11","APOAPSIS":"548.102","OBJECT_ID":"2019-074AH","CLASSIFICATION_TYPE":"U"},{"RCS_SIZE":"LARGE","REF_FRAME":"TEME","OBJECT_TYPE":"PAYLOAD","DECAY_DATE":null,"COUNTRY_CODE":"US","CENTER_NAME":"EARTH","TIME_SYSTEM":"UTC","FILE":"3228256","ECCENTRICITY":"0.00012230","MEAN_MOTION_DOT":"0.00000459","ELEMENT_SET_NO":"999","MEAN_MOTION":"15.06406693","OBJECT_ID":"2019-074AK","CLASSIFICATION_TYPE":"U","TLE_LINE2":"2 44746  53.0567  28.8748 0001223  65.7068 294.4049 15.06406693113096","MEAN_MOTION_DDOT":"0.0000000000000","APOAPSIS":"548.040","LAUNCH_DATE":"2019-11-11","SEMIMAJOR_AXIS":"6925.328","RA_OF_ASC_NODE":"28.8748","NORAD_CAT_ID":"44746","TLE_LINE1":"1 44746U 19074AK  21334.87808798  .00000459  00000-0  49716-4 0  9993","ARG_OF_PERICENTER":"65.7068","EPHEMERIS_TYPE":"0","REV_AT_EPOCH":"11309","PERIAPSIS":"546.346","MEAN_ELEMENT_THEORY":"SGP4","INCLINATION":"53.0567","GP_ID":"190815211","BSTAR":"0.00004971600000","SITE":"AFETR","EPOCH":"2021-11-30T21:04:26.801472","OBJECT_NAME":"STARLINK-1041","PERIOD":"95.592","MEAN_ANOMALY":"294.4049"},{"ELEMENT_SET_NO":"999","MEAN_MOTION_DOT":"0.00000198","MEAN_MOTION":"15.06392321","FILE":"3228256","TIME_SYSTEM":"UTC","DECAY_DATE":null,"COUNTRY_CODE":"US","CENTER_NAME":"EARTH","RCS_SIZE":"LARGE","OBJECT_TYPE":"PAYLOAD","REF_FRAME":"TEME","ECCENTRICITY":"0.00012290","REV_AT_EPOCH":"11305","MEAN_ELEMENT_THEORY":"SGP4","PERIAPSIS":"546.386","TLE_LINE1":"1 44747U 19074AL  21334.57584807  .00000198  00000-0  32159-4 0  9996","NORAD_CAT_ID":"44747","ARG_OF_PERICENTER":"76.0026","EPHEMERIS_TYPE":"0","OBJECT_NAME":"STARLINK-1042","EPOCH":"2021-11-30T13:49:13.273248","MEAN_ANOMALY":"284.1099","PERIOD":"95.593","INCLINATION":"53.0542","GP_ID":"190813959","SITE":"AFETR","BSTAR":"0.00003215900000","OBJECT_ID":"2019-074AL","CLASSIFICATION_TYPE":"U","TLE_LINE2":"2 44747  53.0542  30.2422 0001229  76.0026 284.1099 15.06392321113050","MEAN_MOTION_DDOT":"0.0000000000000","SEMIMAJOR_AXIS":"6925.372","RA_OF_ASC_NODE":"30.2422","LAUNCH_DATE":"2019-11-11","APOAPSIS":"548.088"},{"APOAPSIS":"548.175","LAUNCH_DATE":"2019-11-11","SEMIMAJOR_AXIS":"6925.350","RA_OF_ASC_NODE":"28.9144","MEAN_MOTION_DDOT":"0.0000000000000","TLE_LINE2":"2 44748  53.0553  28.9144 0001386  72.7217 287.3923 15.06399578113093","CLASSIFICATION_TYPE":"U","OBJECT_ID":"2019-074AM","PERIOD":"95.592","MEAN_ANOMALY":"287.3923","EPOCH":"2021-11-30T20:53:50.426592","OBJECT_NAME":"STARLINK-1043","GP_ID":"190814209","SITE":"AFETR","BSTAR":"0.00002730500000","INCLINATION":"53.0553","PERIAPSIS":"546.255","MEAN_ELEMENT_THEORY":"SGP4","REV_AT_EPOCH":"11309","EPHEMERIS_TYPE":"0","ARG_OF_PERICENTER":"72.7217","NORAD_CAT_ID":"44748","TLE_LINE1":"1 44748U 19074AM  21334.87072253  .00000125  00000-0  27305-4 0  9994","ECCENTRICITY":"0.00013860","TIME_SYSTEM":"UTC","FILE":"3228256","REF_FRAME":"TEME","RCS_SIZE":"LARGE","OBJECT_TYPE":"PAYLOAD","DECAY_DATE":null,"CENTER_NAME":"EARTH","COUNTRY_CODE":"US","MEAN_MOTION":"15.06399578","ELEMENT_SET_NO":"999","MEAN_MOTION_DOT":"0.00000125"},{"ECCENTRICITY":"0.00015750","REF_FRAME":"TEME","RCS_SIZE":"LARGE","OBJECT_TYPE":"PAYLOAD","CENTER_NAME":"EARTH","DECAY_DATE":null,"COUNTRY_CODE":"US","TIME_SYSTEM":"UTC","FILE":"3228256","MEAN_MOTION":"15.06387608","MEAN_MOTION_DOT":"0.00000434","ELEMENT_SET_NO":"999","APOAPSIS":"548.342","LAUNCH_DATE":"2019-11-11","SEMIMAJOR_AXIS":"6925.387","RA_OF_ASC_NODE":"28.8629","TLE_LINE2":"2 44751  53.0563  28.8629 0001575  73.3039 286.8122 15.06387608113090","MEAN_MOTION_DDOT":"0.0000000000000","CLASSIFICATION_TYPE":"U","OBJECT_ID":"2019-074AQ","BSTAR":"0.00004807300000","GP_ID":"190815460","SITE":"AFETR","INCLINATION":"53.0563","PERIOD":"95.593","MEAN_ANOMALY":"286.8122","EPOCH":"2021-11-30T21:15:04.821408","OBJECT_NAME":"STARLINK-1046","EPHEMERIS_TYPE":"0","ARG_OF_PERICENTER":"73.3039","NORAD_CAT_ID":"44751","TLE_LINE1":"1 44751U 19074AQ  21334.88547247  .00000434  00000-0  48073-4 0  9997","PERIAPSIS":"546.161","MEAN_ELEMENT_THEORY":"SGP4","REV_AT_EPOCH":"11309"}];
